#aV2021  9  1  0  0  0.00000000     288 DD+AD WGS84 FIT  NGA
## 2173 259200.00000000   300.00000000 59458 0.0000000000000
+   32     1  2  3  4  5  6  7  8  9 10 11 12 13 14 15 16 17
+         18 19 20 21 22 23 24 25 26 27 28 29 30 31 32  0  0
+          0  0  0  0  0  0  0  0  0  0  0  0  0  0  0  0  0
+          0  0  0  0  0  0  0  0  0  0  0  0  0  0  0  0  0
+          0  0  0  0  0  0  0  0  0  0  0  0  0  0  0  0  0
++         2  2  2  2  2  2  2  2  2  2  2  2  2  2  2  2  2
++         2  2  2  2  2  2  2  2  2  2  2  2  2  2  2  0  0
++         0  0  0  0  0  0  0  0  0  0  0  0  0  0  0  0  0
++         0  0  0  0  0  0  0  0  0  0  0  0  0  0  0  0  0
++         0  0  0  0  0  0  0  0  0  0  0  0  0  0  0  0  0
%c cc cc ccc ccc cccc cccc cccc cccc ccccc ccccc ccccc ccccc
%c cc cc ccc ccc cccc cccc cccc cccc ccccc ccccc ccccc ccccc
%f  0.0000000  0.000000000  0.00000000000  0.000000000000000
%f  0.0000000  0.000000000  0.00000000000  0.000000000000000
%i    0    0    0    0      0      0      0      0         0
%i    0    0    0    0      0      0      0      0         0
/*      NGA, ST. LOUIS,MO.                                  
/*   EPHEMERIS COMPUTED FROM 2 DAYS OF DATA                 
/*   EPOCHA v7 SMOOTHER                                     
/*   G2139 IERS2010 SATIGS SATAPC                           
*  2021  9  1  9 10  0.00000000
P  1  13344.084236 -17545.343943  14291.791286    580.572318                    
V  1  -2003.376068  18696.500083  24683.531286     -0.111707                    
P  2 -13936.631155  -6406.950443 -21025.423529   -629.800532                    
V  2   3969.818519 -27970.448543   5787.801349     -0.022207                    
P  3  22456.602384 -12459.922487  -6661.004243   -274.126489                    
V  3   8688.085489   -352.703626  30520.377531     -0.130810                    
P  4  12593.519070  -8900.530443 -21625.120837   -204.254744                    
V  4  19840.582140  18991.525004   3672.859480     -0.001343                    
P  5 -25455.194647   5126.324839  -6146.824732    -52.983142                    
V  5   6111.496942  -5183.427140 -30288.309336     -0.012283                    
P  6  -7545.786713 -19077.456178 -16777.704897     66.190232                    
V  6   5560.229345 -20697.447423  21014.799958      0.069357                    
P  7   5750.981672 -25630.026346   -676.978253    236.676431                    
V  7   3229.984921   2001.751029 -31851.105517      0.074803                    
P  8  20071.532843   1119.276991  17502.597319    -34.812416                    
V  8  16005.695637  15325.102984 -19018.146116     -0.014173                    
P  9   1255.719429 -17499.344078 -20000.836207   -360.152816                    
V  9  20077.493574  15406.537816 -12282.797229     -0.007742                    
P 10   5304.318325  14103.517356  21991.323717   -194.227703                    
V 10 -26140.951956   8886.776271    335.434208     -0.077603                    
P 11 -13341.983632  -8303.400757 -21428.448253     39.918001                    
V 11   7292.515778 -26183.326641   5599.175500      0.025925                    
P 12 -23418.555763  10706.815105  -6468.887718    -91.093223                    
V 12  -8262.055599   -329.823276  30671.621182     -0.053996                    
P 13 -20779.633067  -9910.916000  13232.992159    179.319280                    
V 13  -9687.670084 -14066.340677 -25330.568917      0.053027                    
P 14  -5000.464531 -14498.793348  21683.238221     10.958303                    
V 14  26425.313724  -7809.717628    820.860347     -0.083326                    
P 15 -20239.120472   1466.530024  16925.366142   -124.276920                    
V 15 -17101.151924 -14325.342439 -18442.497614      0.027160                    
P 16  24691.677132   1400.056865 -10529.589112   -383.254648                    
V 16 -12061.854553   4728.087053 -27878.465348     -0.063032                    
P 17 -10374.837660 -21533.733808  12002.382967    498.131174                    
V 17  11538.659696   9008.359730  27122.870121      0.057582                    
P 18  -4960.499258  26021.187748   1065.367585    327.125950                    
V 18  -2870.799894    773.115718 -31953.854467     -0.039413                    
P 19 -16697.735451 -20572.435033   2542.239468     47.164883                    
V 19   3929.983942   1193.602969  31864.032942      0.049892                    
P 20 -20827.247940  -2537.165700 -16159.998791    519.354045                    
V 20  17203.267275 -11652.915404 -20640.395561     -0.001873                    
P 21  15344.820604  -9334.683719  20086.522773    140.383081                    
V 21  -1554.809614  24172.755985  13403.908385      0.020443                    
P 22  24499.207099  -9842.693628   1752.484286   -524.059223                    
V 22   -283.901769   4267.527393  31222.182272      0.093607                    
P 23  -7700.528809  16860.264693  18972.743762     63.218265                    
V 23 -23123.145433   7111.820813 -15751.237766     -0.049555                    
P 24 -14508.563669  13445.854293  17275.258551    224.026537                    
V 24    371.679240 -22805.677600  18198.467533      0.096907                    
P 25 -15296.578320  16100.633889 -14626.155725    200.915632                    
V 25 -17964.698753   3824.541456  23684.756486      0.063932                    
P 26  16986.896800   8124.837075 -18892.844232    129.243394                    
V 26 -21639.742725  10128.891405 -14868.901905      0.043156                    
P 27  22364.035901  10591.217345   9954.034904   -186.670657                    
V 27   8382.044661   9805.701115 -28387.496443     -0.054276                    
P 28 -11330.127020 -12190.074661  21205.647432    509.331414                    
V 28  24811.353357  -6701.465219   9846.145128     -0.070111                    
P 29  -4593.882033  15408.062348 -21172.267675   -405.029194                    
V 29 -19220.809482 -18584.825587  -9436.580346     -0.057446                    
P 30  -2357.929547 -24286.206665  10266.882411   -468.337735                    
V 30   6064.602034 -12036.169167 -27501.107231     -0.039592                    
P 31   9175.167933  17155.299576 -17958.798254   -137.402473                    
V 31  -6845.035103  21845.974099  17922.301121     -0.020407                    
P 32  14365.981276  20652.996206   8904.324838      3.269098                    
V 32 -10035.453691  -5357.492713  28819.015788     -0.031073                    
EOF
